{"type":"FeatureCollection","features":[{"type":"Feature","properties":{"featurecla":"Admin-0 country","scalerank":1,"labelrank":2,"sovereignt":"China","sov_a3":"CH1","adm0_dif":1,"level":2,"type":"Country","tlc":"1","admin":"China","adm0_a3":"CHN","geou_dif":0,"geounit":"China","gu_a3":"CHN","su_dif":0,"subunit":"China","su_a3":"CHN","brk_diff":0,"name":"China","name_long":"China","brk_a3":"CHN","brk_name":"China","brk_group":null,"abbrev":"China","postal":"CN","formal_en":"People's Republic of China","formal_fr":null,"name_ciawf":"China","note_adm0":null,"note_brk":null,"name_sort":"China","name_alt":null,"mapcolor7":4,"mapcolor8":4,"mapcolor9":4,"mapcolor13":3,"pop_est":1397715000,"pop_rank":18,"pop_year":2019,"gdp_md":14342903,"gdp_year":2019,"economy":"3. Emerging region: BRIC","income_grp":"3. Upper middle income","fips_10":"CH","iso_a2":"CN","iso_a2_eh":"CN","iso_a3":"CHN","iso_a3_eh":"CHN","iso_n3":"156","iso_n3_eh":"156","un_a3":"156","wb_a2":"CN","wb_a3":"CHN","woe_id":23424781,"woe_id_eh":23424781,"woe_note":"Exact WOE match as country","adm0_iso":"CHN","adm0_diff":null,"adm0_tlc":"CHN","adm0_a3_us":"CHN","adm0_a3_fr":"CHN","adm0_a3_ru":"CHN","adm0_a3_es":"CHN","adm0_a3_cn":"CHN","adm0_a3_tw":"TWN","adm0_a3_in":"CHN","adm0_a3_np":"CHN","adm0_a3_pk":"CHN","adm0_a3_de":"CHN","adm0_a3_gb":"CHN","adm0_a3_br":"CHN","adm0_a3_il":"CHN","adm0_a3_ps":"CHN","adm0_a3_sa":"CHN","adm0_a3_eg":"CHN","adm0_a3_ma":"CHN","adm0_a3_pt":"CHN","adm0_a3_ar":"CHN","adm0_a3_jp":"CHN","adm0_a3_ko":"CHN","adm0_a3_vn":"CHN","adm0_a3_tr":"CHN","adm0_a3_id":"CHN","adm0_a3_pl":"CHN","adm0_a3_gr":"CHN","adm0_a3_it":"CHN","adm0_a3_nl":"CHN","adm0_a3_se":"CHN","adm0_a3_bd":"CHN","adm0_a3_ua":"CHN","adm0_a3_un":-99,"adm0_a3_wb":-99,"continent":"Asia","region_un":"Asia","subregion":"Eastern Asia","region_wb":"East Asia & Pacific","name_len":5,"long_len":5,"abbrev_len":5,"tiny":-99,"homepart":1,"min_zoom":0,"min_label":1.7,"max_label":5.7,"label_x":106.337289,"label_y":32.498178,"ne_id":1159320471,"wikidataid":"Q148","name_ar":"الصين","name_bn":"গণচীন","name_de":"Volksrepublik China","name_en":"People's Republic of China","name_es":"China","name_fa":"جمهوری خلق چین","name_fr":"République populaire de Chine","name_el":"Λαϊκή Δημοκρατία της Κίνας","name_he":"הרפובליקה העממית של סין","name_hi":"चीनी जनवादी गणराज्य","name_hu":"Kína","name_id":"Republik Rakyat Tiongkok","name_it":"Cina","name_ja":"中華人民共和国","name_ko":"중화인민공화국","name_nl":"Volksrepubliek China","name_pl":"Chińska Republika Ludowa","name_pt":"China","name_ru":"Китайская Народная Республика","name_sv":"Kina","name_tr":"Çin Halk Cumhuriyeti","name_uk":"Китайська Народна Республіка","name_ur":"عوامی جمہوریہ چین","name_vi":"Trung Quốc","name_zh":"中华人民共和国","name_zht":"中華人民共和國","fclass_iso":"Admin-0 country","tlc_diff":null,"fclass_tlc":"Admin-0 country","fclass_us":null,"fclass_fr":null,"fclass_ru":null,"fclass_es":null,"fclass_cn":null,"fclass_tw":"Unrecognized","fclass_in":null,"fclass_np":null,"fclass_pk":null,"fclass_de":null,"fclass_gb":null,"fclass_br":null,"fclass_il":null,"fclass_ps":null,"fclass_sa":null,"fclass_eg":null,"fclass_ma":null,"fclass_pt":null,"fclass_ar":null,"fclass_jp":null,"fclass_ko":null,"fclass_vn":null,"fclass_tr":null,"fclass_id":null,"fclass_pl":null,"fclass_gr":null,"fclass_it":null,"fclass_nl":null,"fclass_se":null,"fclass_bd":null,"fclass_ua":null,"filename":"CHN.geojson"},"geometry":{"type":"Polygon","coordinates":[[[90,25],[120,25],[120,45],[90,45],[90,25]]]}}]}
